[{"OBJECT_NAME":"STARLINK-30544","OBJECT_ID":"2023-158E","EPOCH":"2026-03-09T07:07:54.230880","MEAN_MOTION":15.27633848,"ECCENTRICITY":0.0002176,"INCLINATION":43.0065,"RA_OF_ASC_NODE":28.9469,"ARG_OF_PERICENTER":251.3616,"MEAN_ANOMALY":108.6999,"EPHEMERIS_TYPE":0,"CLASSIFICATION_TYPE":"U","NORAD_CAT_ID":58055,"ELEMENT_SET_NO":999,"REV_AT_EPOCH":13351,"BSTAR":-0.00044228416,"MEAN_MOTION_DOT":-0.00012434,"MEAN_MOTION_DDOT":0},{"OBJECT_NAME":"COSMOS 2251 DEB","OBJECT_ID":"1993-036AWN","EPOCH":"2026-03-09T06:26:08.321568","MEAN_MOTION":15.11257706,"ECCENTRICITY":0.00842289,"INCLINATION":74.0116,"RA_OF_ASC_NODE":284.5024,"ARG_OF_PERICENTER":350.308,"MEAN_ANOMALY":9.6482,"EPHEMERIS_TYPE":0,"CLASSIFICATION_TYPE":"U","NORAD_CAT_ID":35996,"ELEMENT_SET_NO":999,"REV_AT_EPOCH":73632,"BSTAR":0.00055219842,"MEAN_MOTION_DOT":0.00010085,"MEAN_MOTION_DDOT":0}]
